IRIDIUM 39              
1 25042U 97069D   26004.86447133  .00001080  00000+0  27603-3 0  9991
2 25042  86.3935 124.7155 0017414 359.2872   0.8304 14.49548894478175
IRIDIUM 38              
1 25043U 97069E   26005.14439301  .00000724  00000+0  23129-3 0  9995
2 25043  86.3990 148.2673 0003318 124.6944 235.4567 14.38343172474987
IRIDIUM 42              
1 25077U 97077A   26005.12093984  .00000641  00000+0  21157-3 0  9999
2 25077  86.3995 154.6945 0002202 113.6396 246.5032 14.36558388470185
IRIDIUM 44              
1 25078U 97077B   26004.87723038  .00000627  00000+0  19106-3 0  9996
2 25078  86.3988 136.1929 0003880  89.5230 270.6414 14.40456522472733
IRIDIUM 45              
1 25104U 97082A   26004.86252249  .00034286  00000+0  93588-3 0  9996
2 25104  86.3556 309.2696 0091591 291.9432  67.2101 15.33043141482812
IRIDIUM 24              
1 25105U 97082B   26005.21255067  .00000747  00000+0  21991-3 0  9992
2 25105  86.3913 354.5903 0013019 124.0282 236.2156 14.42357064472337
IRIDIUM 51              
1 25262U 98018A   26004.86328915  .00139471  00000+0  11873-2 0  9993
2 25262  86.3732 314.3254 0046952 174.7225 185.4550 15.67676846478265
IRIDIUM 57              
1 25273U 98019B   26005.11460862  .00000476  00000+0  15699-3 0  9996
2 25273  86.3934  60.5833 0002298  95.6715 264.4744 14.36071876453762
